STARLINK-37683          
1 69367U 26123Q   26167.83335647 -.01913419  00000+0 -11072-1 0  9997
2 69367  53.1589 243.0881 0001270  70.6202  38.2328 15.80956475  3095
STARLINK-37687          
1 69368U 26123R   26167.83335647  .00018090  00000+0  95038-4 0  9993
2 69368  53.1586 243.0392 0000828  74.1622  58.5191 15.80863765  3095
STARLINK-37631          
1 69369U 26123S   26167.83335647 -.00031217  00000+0 -15508-3 0  9995
2 69369  53.1589 243.0486 0001066  80.5162  47.6523 15.80887093  3142
STARLINK-37673          
1 69370U 26123T   26167.83335647 -.00026669  00000+0 -13190-3 0  9997
2 69370  53.1584 243.0434 0001318  70.6783  59.9667 15.80886432  3142
STARLINK-37645          
1 69371U 26123U   26167.83335647 -.00066056  00000+0 -33329-3 0  9998
2 69371  53.1584 243.0652 0000851  48.8522  71.0817 15.80899500  3146
STARLINK-37688          
1 69372U 26123V   26167.83335647 -.00055466  00000+0 -27898-3 0  9996
2 69372  53.1581 243.0342 0001305  84.8429  49.7747 15.80895411  3142
STARLINK-37685          
1 69373U 26123W   26167.83335647 -.00046939  00000+0 -23539-3 0  9990
2 69373  53.1581 243.0282 0001151  68.9866  68.5210 15.80888916  3149
STARLINK-37632          
1 69374U 26123X   26167.83335647 -.00043835  00000+0 -21945-3 0  9992
2 69374  53.1580 243.0194 0001101  77.8544  63.8590 15.80894921  3094
STARLINK-37454          
1 69375U 26123Y   26167.83335647 -.00056521  00000+0 -28438-3 0  9993
2 69375  53.1578 243.0063 0001012  66.4387  81.5292 15.80896630  3238
STARLINK-37485          
1 69376U 26123Z   26167.83335647 -.00027703  00000+0 -13722-3 0  9994
2 69376  53.1579 242.9973 0001134  62.6000  89.5766 15.80880042  3237
STARLINK-37439          
1 69377U 26123AA  26167.83335647 -.00054295  00000+0 -27291-3 0  9997
2 69377  53.1576 242.9129 0001491  73.2443 119.4487 15.80900130  3103
STARLINK-37376          
1 69378U 26123AB  26167.83335647 -.00200383  00000+0 -10318-2 0  9990
2 69378  53.1579 242.9427 0000949  54.9654 123.1727 15.80948572  3230
STARLINK-37383          
1 69379U 26123AC  26167.83335647 -.00038611  00000+0 -19288-3 0  9990
2 69379  53.1573 242.8701 0001222  68.1919 144.6192 15.80880439  3236
STARLINK-37411          
1 69380U 26123AD  26167.83335647  .00017089  00000+0  89743-4 0  9990
2 69380  53.1575 242.9282 0001035  70.7961 114.1622 15.80923744  3230
STARLINK-37427          
1 69381U 26123AE  26167.83335647 -.00065087  00000+0 -32814-3 0  9990
2 69381  53.1574 242.8796 0001119  74.6690 133.6476 15.80909640  3157
QIANFAN-165             
1 69382U 26124A   26167.83294041  .00000073  00000+0  29904-4 0  9993
2 69382  88.9984   2.0803 0002931 118.0018 242.1467 14.16012124  1765
QIANFAN-166             
1 69383U 26124B   26167.61600813 -.01997651  00000+0 -11343+1 0  9992
2 69383  88.9976   2.1037 0003493 177.8606 182.2597 14.14026149  1732
QIANFAN-167             
1 69384U 26124C   26167.61588204 -.01821823  00000+0 -10461+1 0  9999
2 69384  88.9978   2.1035 0005406 164.9610 195.1738 14.13054028  1737
QIANFAN-168             
1 69385U 26124D   26167.61266646 -.01931430  00000+0 -10914+1 0  9992
2 69385  88.9972   2.1029 0004291 165.1493 194.9821 14.14154119  1731
QIANFAN-169             
1 69386U 26124E   26167.61160703 -.02116502  00000+0 -11658+1 0  9992
2 69386  88.9977   2.1046 0009774 173.3636 186.7683 14.15895470  1735
QIANFAN-170             
1 69387U 26124F   26167.60872213 -.02039324  00000+0 -11115+1 0  9992
2 69387  88.9977   2.1026 0007679 180.4785 179.6397 14.16316594  1739
QIANFAN-171             
1 69388U 26124G   26167.60648845 -.02079632  00000+0 -11092+1 0  9995
2 69388  88.9977   2.1019 0008890 185.3862 174.7233 14.17558465  1739
QIANFAN-172             
1 69389U 26124H   26167.60650208 -.01815101  00000+0 -98975+0 0  9994
2 69389  88.9977   2.1024 0006567 167.0504 193.0854 14.15836326  1731
QIANFAN-173             
1 69390U 26124J   26167.60473596 -.01965517  00000+0 -10499+1 0  9992
2 69390  88.9978   2.1018 0007747 193.7112 166.3868 14.17247422  1732
QIANFAN-174             
1 69391U 26124K   26167.60164416 -.01880136  00000+0 -98398+0 0  9997
2 69391  88.9978   2.1012 0006481 218.7175 141.3550 14.18175868  1734
QIANFAN-175             
1 69392U 26124L   26167.60149594 -.01916605  00000+0 -99277+0 0  9996
2 69392  88.9979   2.1011 0007318 208.1806 151.8989 14.18799501  1737
QIANFAN-176             
1 69393U 26124M   26167.60003483 -.01910137  00000+0 -97832+0 0  9992
2 69393  88.9975   2.1003 0005054 201.7076 158.3900 14.19396707  1735
QIANFAN-177             
1 69394U 26124N   26167.52858324 -.01823491  00000+0 -93299+0 0  9995
2 69394  88.9978   2.1089 0008126 179.8433 180.2761 14.19263431  1723
QIANFAN-178             
1 69395U 26124P   26167.59977606 -.01983195  00000+0 -10137+1 0  9997
2 69395  88.9973   2.1003 0005187 184.9117 175.2023 14.19652019  1735
QIANFAN-179             
1 69396U 26124Q   26167.66804656 -.01820505  00000+0 -92577+0 0  9992
2 69396  88.9976   2.0925 0005856 194.6722 165.4299 14.19592945  1742
