OBJECT_NAME,OBJECT_ID,EPOCH,MEAN_MOTION,ECCENTRICITY,INCLINATION,RA_OF_ASC_NODE,ARG_OF_PERICENTER,MEAN_ANOMALY,EPHEMERIS_TYPE,CLASSIFICATION_TYPE,NORAD_CAT_ID,ELEMENT_SET_NO,REV_AT_EPOCH,BSTAR,MEAN_MOTION_DOT,MEAN_MOTION_DDOT
STARLINK-37683,2026-123Q,2026-06-16T20:00:01.999008,15.80956475,.000127,53.1589,243.0881,70.6202,38.2328,0,U,69367,999,309,-.11072E-1,-.1913419E-1,0
STARLINK-37687,2026-123R,2026-06-16T20:00:01.999008,15.80863765,.0000828,53.1586,243.0392,74.1622,58.5191,0,U,69368,999,309,.95038E-4,.1809E-3,0
STARLINK-37631,2026-123S,2026-06-16T20:00:01.999008,15.80887093,.0001066,53.1589,243.0486,80.5162,47.6523,0,U,69369,999,314,-.15508E-3,-.31217E-3,0
STARLINK-37673,2026-123T,2026-06-16T20:00:01.999008,15.80886432,.0001318,53.1584,243.0434,70.6783,59.9667,0,U,69370,999,314,-.1319E-3,-.26669E-3,0
STARLINK-37645,2026-123U,2026-06-16T20:00:01.999008,15.80899500,.0000851,53.1584,243.0652,48.8522,71.0817,0,U,69371,999,314,-.33329E-3,-.66056E-3,0
STARLINK-37688,2026-123V,2026-06-16T20:00:01.999008,15.80895411,.0001305,53.1581,243.0342,84.8429,49.7747,0,U,69372,999,314,-.27898E-3,-.55466E-3,0
STARLINK-37685,2026-123W,2026-06-16T20:00:01.999008,15.80888916,.0001151,53.1581,243.0282,68.9866,68.5210,0,U,69373,999,314,-.23539E-3,-.46939E-3,0
STARLINK-37632,2026-123X,2026-06-16T20:00:01.999008,15.80894921,.0001101,53.1580,243.0194,77.8544,63.8590,0,U,69374,999,309,-.21945E-3,-.43835E-3,0
STARLINK-37454,2026-123Y,2026-06-16T20:00:01.999008,15.80896630,.0001012,53.1578,243.0063,66.4387,81.5292,0,U,69375,999,323,-.28438E-3,-.56521E-3,0
STARLINK-37485,2026-123Z,2026-06-16T20:00:01.999008,15.80880042,.0001134,53.1579,242.9973,62.6000,89.5766,0,U,69376,999,323,-.13722E-3,-.27703E-3,0
STARLINK-37439,2026-123AA,2026-06-16T20:00:01.999008,15.80900130,.0001491,53.1576,242.9129,73.2443,119.4487,0,U,69377,999,310,-.27291E-3,-.54295E-3,0
STARLINK-37376,2026-123AB,2026-06-16T20:00:01.999008,15.80948572,.0000949,53.1579,242.9427,54.9654,123.1727,0,U,69378,999,323,-.10318E-2,-.200383E-2,0
STARLINK-37383,2026-123AC,2026-06-16T20:00:01.999008,15.80880439,.0001222,53.1573,242.8701,68.1919,144.6192,0,U,69379,999,323,-.19288E-3,-.38611E-3,0
STARLINK-37411,2026-123AD,2026-06-16T20:00:01.999008,15.80923744,.0001035,53.1575,242.9282,70.7961,114.1622,0,U,69380,999,323,.89743E-4,.17089E-3,0
STARLINK-37427,2026-123AE,2026-06-16T20:00:01.999008,15.80909640,.0001119,53.1574,242.8796,74.6690,133.6476,0,U,69381,999,315,-.32814E-3,-.65087E-3,0
QIANFAN-165,2026-124A,2026-06-16T19:59:26.051424,14.16012124,.0002931,88.9984,2.0803,118.0018,242.1467,0,U,69382,999,176,.29904E-4,.73E-6,0
QIANFAN-166,2026-124B,2026-06-16T14:47:03.102432,14.14026149,.0003493,88.9976,2.1037,177.8606,182.2597,0,U,69383,999,173,-.11343E+1,-.1997651E-1,0
QIANFAN-167,2026-124C,2026-06-16T14:46:52.208256,14.13054028,.0005406,88.9978,2.1035,164.9610,195.1738,0,U,69384,999,173,-.10461E+1,-.1821823E-1,0
QIANFAN-168,2026-124D,2026-06-16T14:42:14.382144,14.14154119,.0004291,88.9972,2.1029,165.1493,194.9821,0,U,69385,999,173,-.10914E+1,-.193143E-1,0
QIANFAN-169,2026-124E,2026-06-16T14:40:42.847392,14.15895470,.0009774,88.9977,2.1046,173.3636,186.7683,0,U,69386,999,173,-.11658E+1,-.2116502E-1,0
QIANFAN-170,2026-124F,2026-06-16T14:36:33.592032,14.16316594,.0007679,88.9977,2.1026,180.4785,179.6397,0,U,69387,999,173,-.11115E+1,-.2039324E-1,0
QIANFAN-171,2026-124G,2026-06-16T14:33:20.602080,14.17558465,.000889,88.9977,2.1019,185.3862,174.7233,0,U,69388,999,173,-.11092E+1,-.2079632E-1,0
QIANFAN-172,2026-124H,2026-06-16T14:33:21.779712,14.15836326,.0006567,88.9977,2.1024,167.0504,193.0854,0,U,69389,999,173,-.98975E+0,-.1815101E-1,0
QIANFAN-173,2026-124J,2026-06-16T14:30:49.186944,14.17247422,.0007747,88.9978,2.1018,193.7112,166.3868,0,U,69390,999,173,-.10499E+1,-.1965517E-1,0
QIANFAN-174,2026-124K,2026-06-16T14:26:22.055424,14.18175868,.0006481,88.9978,2.1012,218.7175,141.3550,0,U,69391,999,173,-.98398E+0,-.1880136E-1,0
QIANFAN-175,2026-124L,2026-06-16T14:26:09.249216,14.18799501,.0007318,88.9979,2.1011,208.1806,151.8989,0,U,69392,999,173,-.99277E+0,-.1916605E-1,0
QIANFAN-176,2026-124M,2026-06-16T14:24:03.009312,14.19396707,.0005054,88.9975,2.1003,201.7076,158.3900,0,U,69393,999,173,-.97832E+0,-.1910137E-1,0
QIANFAN-177,2026-124N,2026-06-16T12:41:09.591936,14.19263431,.0008126,88.9978,2.1089,179.8433,180.2761,0,U,69394,999,172,-.93299E+0,-.1823491E-1,0
QIANFAN-178,2026-124P,2026-06-16T14:23:40.651584,14.19652019,.0005187,88.9973,2.1003,184.9117,175.2023,0,U,69395,999,173,-.10137E+1,-.1983195E-1,0
QIANFAN-179,2026-124Q,2026-06-16T16:01:59.222784,14.19592945,.0005856,88.9976,2.0925,194.6722,165.4299,0,U,69396,999,174,-.92577E+0,-.1820505E-1,0
